FENGYUN 1C DEB          
1 30761U 99025ATX 26064.07077010  .00003331  00000+0  11096-2 0  9990
2 30761  98.9712 358.4677 0085398  71.3026 289.7405 14.36247411989236
FENGYUN 1C DEB          
1 30762U 99025ATY 26063.90926218  .00001236  00000+0  75653-3 0  9997
2 30762  98.8826  57.0842 0199464  67.6938 323.4563 13.98210560967866
FENGYUN 1C DEB          
1 30763U 99025ATZ 26064.18016771  .00024126  00000+0  44638-2 0  9994
2 30763  98.8855 146.9097 0017357  24.5915   5.7490 14.65238202983502
FENGYUN 1C DEB          
1 30764U 99025AUA 26063.91870968  .00051929  00000+0  13381-2 0  9993
2 30764  98.7854  54.8459 0061668 248.1436 111.3239 15.37067226 24817
FENGYUN 1C DEB          
1 30765U 99025AUB 26064.10375429  .00001580  00000+0  82181-3 0  9991
2 30765  98.7778 113.8026 0066239 335.4491  52.1041 14.14989171979873
FENGYUN 1C DEB          
1 30766U 99025AUC 26063.23177292  .00001420  00000+0  80659-3 0  9994
2 30766  98.6765  65.6675 0082122 202.5389 220.2390 14.09778597639456
FENGYUN 1C DEB          
1 30768U 99025AUE 26064.23050887  .00009164  00000+0  23970-2 0  9992
2 30768  98.6108 160.6279 0026139 204.1357 184.7637 14.49369395990650
FENGYUN 1C DEB          
1 30770U 99025AUG 26063.97863969  .00000671  00000+0  36307-3 0  9991
2 30770  98.6562  72.6592 0014603  52.2814 337.3186 14.15796044980719
FENGYUN 1C DEB          
1 30771U 99025AUH 26063.46380326  .00014966  00000+0  43012-2 0  9999
2 30771  98.9096  47.4708 0024821  53.3968 306.9500 14.44732548982433
FENGYUN 1C DEB          
1 30802U 99025AUL 26064.21426017  .00005753  00000+0  20973-2 0  9991
2 30802  98.8300 157.6177 0021561 158.3370 231.3414 14.33351350983847
FENGYUN 1C DEB          
1 30803U 99025AUM 26064.05370746  .00002704  00000+0  14363-2 0  9990
2 30803  99.2367 104.6704 0103972 331.9100  57.1688 14.11710898971601
FENGYUN 1C DEB          
1 30804U 99025AUN 26064.14311302  .00001856  00000+0  35603-3 0  9992
2 30804  98.8810 139.7965 0183416 300.9105  87.2311 14.54991640  6700
FENGYUN 1C DEB          
1 30805U 99025AUP 26064.08719993  .00000649  00000+0  43416-3 0  9994
2 30805  98.8092 109.1694 0072146  55.6267 334.2622 14.03128562971152
FENGYUN 1C DEB          
1 30806U 99025AUQ 26062.02127494  .00000916  00000+0  84173-3 0  9998
2 30806  99.0298  88.7996 0266441 278.6764 107.8298 13.70570932947952
FENGYUN 1C DEB          
1 30809U 99025AUT 26063.70437762  .00004795  00000+0  18524-2 0  9994
2 30809  98.7825 158.4583 0049065 290.6660  68.9265 14.29965846982580
FENGYUN 1C DEB          
1 30810U 99025AUU 26063.43902559  .00016609  00000+0  88079-2 0  9996
2 30810  98.6605 236.7136 0181554 185.6410 174.2716 14.05564268955306
