[{"OBJECT_NAME":"FENGYUN 1C DEB","OBJECT_ID":"1999-025ATX","EPOCH":"2026-03-05T01:41:54.536640","MEAN_MOTION":14.36247411,"ECCENTRICITY":0.00853986,"INCLINATION":98.9712,"RA_OF_ASC_NODE":358.4677,"ARG_OF_PERICENTER":71.3026,"MEAN_ANOMALY":289.7405,"EPHEMERIS_TYPE":0,"CLASSIFICATION_TYPE":"U","NORAD_CAT_ID":30761,"ELEMENT_SET_NO":999,"REV_AT_EPOCH":98923,"BSTAR":0.001109562,"MEAN_MOTION_DOT":3.331e-5,"MEAN_MOTION_DDOT":0},{"OBJECT_NAME":"FENGYUN 1C DEB","OBJECT_ID":"1999-025ATY","EPOCH":"2026-03-04T21:49:20.252352","MEAN_MOTION":13.9821056,"ECCENTRICITY":0.01994646,"INCLINATION":98.8826,"RA_OF_ASC_NODE":57.0842,"ARG_OF_PERICENTER":67.6938,"MEAN_ANOMALY":323.4563,"EPHEMERIS_TYPE":0,"CLASSIFICATION_TYPE":"U","NORAD_CAT_ID":30762,"ELEMENT_SET_NO":999,"REV_AT_EPOCH":96786,"BSTAR":0.00075652764,"MEAN_MOTION_DOT":1.236e-5,"MEAN_MOTION_DDOT":0},{"OBJECT_NAME":"FENGYUN 1C DEB","OBJECT_ID":"1999-025ATZ","EPOCH":"2026-03-05T04:19:26.490144","MEAN_MOTION":14.65238202,"ECCENTRICITY":0.00173576,"INCLINATION":98.8855,"RA_OF_ASC_NODE":146.9097,"ARG_OF_PERICENTER":24.5915,"MEAN_ANOMALY":5.749,"EPHEMERIS_TYPE":0,"CLASSIFICATION_TYPE":"U","NORAD_CAT_ID":30763,"ELEMENT_SET_NO":999,"REV_AT_EPOCH":98350,"BSTAR":0.0044638458,"MEAN_MOTION_DOT":0.00024126,"MEAN_MOTION_DDOT":0},{"OBJECT_NAME":"FENGYUN 1C DEB","OBJECT_ID":"1999-025AUA","EPOCH":"2026-03-04T22:02:56.516352","MEAN_MOTION":15.37067226,"ECCENTRICITY":0.00616689,"INCLINATION":98.7854,"RA_OF_ASC_NODE":54.8459,"ARG_OF_PERICENTER":248.1436,"MEAN_ANOMALY":111.3239,"EPHEMERIS_TYPE":0,"CLASSIFICATION_TYPE":"U","NORAD_CAT_ID":30764,"ELEMENT_SET_NO":999,"REV_AT_EPOCH":2481,"BSTAR":0.0013380633,"MEAN_MOTION_DOT":0.00051929,"MEAN_MOTION_DDOT":0},{"OBJECT_NAME":"FENGYUN 1C DEB","OBJECT_ID":"1999-025AUB","EPOCH":"2026-03-05T02:29:24.370656","MEAN_MOTION":14.14989171,"ECCENTRICITY":0.00662399,"INCLINATION":98.7778,"RA_OF_ASC_NODE":113.8026,"ARG_OF_PERICENTER":335.4491,"MEAN_ANOMALY":52.1041,"EPHEMERIS_TYPE":0,"CLASSIFICATION_TYPE":"U","NORAD_CAT_ID":30765,"ELEMENT_SET_NO":999,"REV_AT_EPOCH":97987,"BSTAR":0.0008218097,"MEAN_MOTION_DOT":1.58e-5,"MEAN_MOTION_DDOT":0},{"OBJECT_NAME":"FENGYUN 1C DEB","OBJECT_ID":"1999-025AUC","EPOCH":"2026-03-04T05:33:45.180288","MEAN_MOTION":14.09778597,"ECCENTRICITY":0.00821223,"INCLINATION":98.6765,"RA_OF_ASC_NODE":65.6675,"ARG_OF_PERICENTER":202.5389,"MEAN_ANOMALY":220.239,"EPHEMERIS_TYPE":0,"CLASSIFICATION_TYPE":"U","NORAD_CAT_ID":30766,"ELEMENT_SET_NO":999,"REV_AT_EPOCH":63945,"BSTAR":0.00080659307,"MEAN_MOTION_DOT":1.42e-5,"MEAN_MOTION_DDOT":0},{"OBJECT_NAME":"FENGYUN 1C DEB","OBJECT_ID":"1999-025AUE","EPOCH":"2026-03-05T05:31:55.966368","MEAN_MOTION":14.49369395,"ECCENTRICITY":0.00261397,"INCLINATION":98.6108,"RA_OF_ASC_NODE":160.6279,"ARG_OF_PERICENTER":204.1357,"MEAN_ANOMALY":184.7637,"EPHEMERIS_TYPE":0,"CLASSIFICATION_TYPE":"U","NORAD_CAT_ID":30768,"ELEMENT_SET_NO":999,"REV_AT_EPOCH":99065,"BSTAR":0.0023970062,"MEAN_MOTION_DOT":9.164e-5,"MEAN_MOTION_DDOT":0},{"OBJECT_NAME":"FENGYUN 1C DEB","OBJECT_ID":"1999-025AUG","EPOCH":"2026-03-04T23:29:14.469216","MEAN_MOTION":14.15796044,"ECCENTRICITY":0.00146038,"INCLINATION":98.6562,"RA_OF_ASC_NODE":72.6592,"ARG_OF_PERICENTER":52.2814,"MEAN_ANOMALY":337.3186,"EPHEMERIS_TYPE":0,"CLASSIFICATION_TYPE":"U","NORAD_CAT_ID":30770,"ELEMENT_SET_NO":999,"REV_AT_EPOCH":98071,"BSTAR":0.0003630702,"MEAN_MOTION_DOT":6.71e-6,"MEAN_MOTION_DDOT":0},{"OBJECT_NAME":"FENGYUN 1C DEB","OBJECT_ID":"1999-025AUH","EPOCH":"2026-03-04T11:07:52.601664","MEAN_MOTION":14.44732548,"ECCENTRICITY":0.00248215,"INCLINATION":98.9096,"RA_OF_ASC_NODE":47.4708,"ARG_OF_PERICENTER":53.3968,"MEAN_ANOMALY":306.95,"EPHEMERIS_TYPE":0,"CLASSIFICATION_TYPE":"U","NORAD_CAT_ID":30771,"ELEMENT_SET_NO":999,"REV_AT_EPOCH":98243,"BSTAR":0.0043012205,"MEAN_MOTION_DOT":0.00014966,"MEAN_MOTION_DDOT":0},{"OBJECT_NAME":"FENGYUN 1C DEB","OBJECT_ID":"1999-025AUL","EPOCH":"2026-03-05T05:08:32.078688","MEAN_MOTION":14.3335135,"ECCENTRICITY":0.00215612,"INCLINATION":98.83,"RA_OF_ASC_NODE":157.6177,"ARG_OF_PERICENTER":158.337,"MEAN_ANOMALY":231.3414,"EPHEMERIS_TYPE":0,"CLASSIFICATION_TYPE":"U","NORAD_CAT_ID":30802,"ELEMENT_SET_NO":999,"REV_AT_EPOCH":98384,"BSTAR":0.002097275,"MEAN_MOTION_DOT":5.753e-5,"MEAN_MOTION_DDOT":0},{"OBJECT_NAME":"FENGYUN 1C DEB","OBJECT_ID":"1999-025AUM","EPOCH":"2026-03-05T01:17:20.324544","MEAN_MOTION":14.11710898,"ECCENTRICITY":0.01039722,"INCLINATION":99.2367,"RA_OF_ASC_NODE":104.6704,"ARG_OF_PERICENTER":331.91,"MEAN_ANOMALY":57.1688,"EPHEMERIS_TYPE":0,"CLASSIFICATION_TYPE":"U","NORAD_CAT_ID":30803,"ELEMENT_SET_NO":999,"REV_AT_EPOCH":97160,"BSTAR":0.0014362522,"MEAN_MOTION_DOT":2.704e-5,"MEAN_MOTION_DDOT":0},{"OBJECT_NAME":"FENGYUN 1C DEB","OBJECT_ID":"1999-025AUN","EPOCH":"2026-03-05T03:26:04.964928","MEAN_MOTION":14.5499164,"ECCENTRICITY":0.01834165,"INCLINATION":98.881,"RA_OF_ASC_NODE":139.7965,"ARG_OF_PERICENTER":300.9105,"MEAN_ANOMALY":87.2311,"EPHEMERIS_TYPE":0,"CLASSIFICATION_TYPE":"U","NORAD_CAT_ID":30804,"ELEMENT_SET_NO":999,"REV_AT_EPOCH":670,"BSTAR":0.00035602957,"MEAN_MOTION_DOT":1.856e-5,"MEAN_MOTION_DDOT":0},{"OBJECT_NAME":"FENGYUN 1C DEB","OBJECT_ID":"1999-025AUP","EPOCH":"2026-03-05T02:05:34.073952","MEAN_MOTION":14.03128562,"ECCENTRICITY":0.00721464,"INCLINATION":98.8092,"RA_OF_ASC_NODE":109.1694,"ARG_OF_PERICENTER":55.6267,"MEAN_ANOMALY":334.2622,"EPHEMERIS_TYPE":0,"CLASSIFICATION_TYPE":"U","NORAD_CAT_ID":30805,"ELEMENT_SET_NO":999,"REV_AT_EPOCH":97115,"BSTAR":0.00043416129,"MEAN_MOTION_DOT":6.49e-6,"MEAN_MOTION_DDOT":0},{"OBJECT_NAME":"FENGYUN 1C DEB","OBJECT_ID":"1999-025AUQ","EPOCH":"2026-03-03T00:30:38.154816","MEAN_MOTION":13.70570932,"ECCENTRICITY":0.02664418,"INCLINATION":99.0298,"RA_OF_ASC_NODE":88.7996,"ARG_OF_PERICENTER":278.6764,"MEAN_ANOMALY":107.8298,"EPHEMERIS_TYPE":0,"CLASSIFICATION_TYPE":"U","NORAD_CAT_ID":30806,"ELEMENT_SET_NO":999,"REV_AT_EPOCH":94795,"BSTAR":0.00084173415,"MEAN_MOTION_DOT":9.16e-6,"MEAN_MOTION_DDOT":0},{"OBJECT_NAME":"FENGYUN 1C DEB","OBJECT_ID":"1999-025AUT","EPOCH":"2026-03-04T16:54:18.226368","MEAN_MOTION":14.29965846,"ECCENTRICITY":0.00490651,"INCLINATION":98.7825,"RA_OF_ASC_NODE":158.4583,"ARG_OF_PERICENTER":290.666,"MEAN_ANOMALY":68.9265,"EPHEMERIS_TYPE":0,"CLASSIFICATION_TYPE":"U","NORAD_CAT_ID":30809,"ELEMENT_SET_NO":999,"REV_AT_EPOCH":98258,"BSTAR":0.0018524157,"MEAN_MOTION_DOT":4.795e-5,"MEAN_MOTION_DDOT":0},{"OBJECT_NAME":"FENGYUN 1C DEB","OBJECT_ID":"1999-025AUU","EPOCH":"2026-03-04T10:32:11.810976","MEAN_MOTION":14.05564268,"ECCENTRICITY":0.01815543,"INCLINATION":98.6605,"RA_OF_ASC_NODE":236.7136,"ARG_OF_PERICENTER":185.641,"MEAN_ANOMALY":174.2716,"EPHEMERIS_TYPE":0,"CLASSIFICATION_TYPE":"U","NORAD_CAT_ID":30810,"ELEMENT_SET_NO":999,"REV_AT_EPOCH":95530,"BSTAR":0.0088079216,"MEAN_MOTION_DOT":0.00016609,"MEAN_MOTION_DDOT":0}]
